start=new Date('2022-01-25T00:00:00.000Z').valueOf();
sats=[{"GP_ID":"194571589","RCS_SIZE":"LARGE","TIME_SYSTEM":"UTC","FILE":"3282614","REF_FRAME":"TEME","REV_AT_EPOCH":"4021","BSTAR":"0.00024266000000","CENTER_NAME":"EARTH","CLASSIFICATION_TYPE":"U","ELEMENT_SET_NO":"999","EPHEMERIS_TYPE":"0","TLE_LINE2":"2 48359  53.0548 276.8914 0001957  70.3427 289.7773 15.06408177 40217","DECAY_DATE":null,"OBJECT_NAME":"STARLINK-2628","PERIOD":"95.592","ARG_OF_PERICENTER":"70.3427","PERIAPSIS":"545.833","OBJECT_ID":"2021-038G","MEAN_ELEMENT_THEORY":"SGP4","NORAD_CAT_ID":"48359","SITE":"AFETR","TLE_LINE1":"1 48359U 21038G   22024.89858452  .00003335  00000-0  24266-3 0  9999","OBJECT_TYPE":"PAYLOAD","MEAN_MOTION_DOT":"0.00003335","SEMIMAJOR_AXIS":"6925.323","LAUNCH_DATE":"2021-05-04","MEAN_MOTION":"15.06408177","EPOCH":"2022-01-24T21:33:57.702528","INCLINATION":"53.0548","MEAN_ANOMALY":"289.7773","ECCENTRICITY":"0.00019570","COUNTRY_CODE":"US","RA_OF_ASC_NODE":"276.8914","APOAPSIS":"548.544","MEAN_MOTION_DDOT":"0.0000000000000"},{"DECAY_DATE":null,"OBJECT_NAME":"STARLINK-2622","PERIOD":"95.592","ARG_OF_PERICENTER":"65.1489","PERIAPSIS":"545.873","OBJECT_ID":"2021-038H","GP_ID":"194569845","RCS_SIZE":"LARGE","FILE":"3282614","TIME_SYSTEM":"UTC","REV_AT_EPOCH":"4021","REF_FRAME":"TEME","BSTAR":"0.00008518700000","CENTER_NAME":"EARTH","ELEMENT_SET_NO":"999","CLASSIFICATION_TYPE":"U","EPHEMERIS_TYPE":"0","TLE_LINE2":"2 48360  53.0560 276.9043 0001931  65.1489 294.9701 15.06401160 40213","MEAN_MOTION":"15.06401160","EPOCH":"2022-01-24T21:28:38.775072","INCLINATION":"53.0560","MEAN_ANOMALY":"294.9701","ECCENTRICITY":"0.00019310","RA_OF_ASC_NODE":"276.9043","COUNTRY_CODE":"US","APOAPSIS":"548.547","MEAN_MOTION_DDOT":"0.0000000000000","MEAN_ELEMENT_THEORY":"SGP4","NORAD_CAT_ID":"48360","TLE_LINE1":"1 48360U 21038H   22024.89489323  .00000987  00000-0  85187-4 0  9998","SITE":"AFETR","OBJECT_TYPE":"PAYLOAD","MEAN_MOTION_DOT":"0.00000987","LAUNCH_DATE":"2021-05-04","SEMIMAJOR_AXIS":"6925.345"},{"MEAN_MOTION":"15.06403531","EPOCH":"2022-01-24T21:23:20.047200","INCLINATION":"53.0501","MEAN_ANOMALY":"290.6271","ECCENTRICITY":"0.00019880","COUNTRY_CODE":"US","RA_OF_ASC_NODE":"276.9237","APOAPSIS":"548.579","MEAN_MOTION_DDOT":"0.0000000000000","MEAN_ELEMENT_THEORY":"SGP4","NORAD_CAT_ID":"48361","OBJECT_TYPE":"PAYLOAD","TLE_LINE1":"1 48361U 21038J   22024.89120425  .00000388  00000-0  44967-4 0  9990","SITE":"AFETR","MEAN_MOTION_DOT":"0.00000388","LAUNCH_DATE":"2021-05-04","SEMIMAJOR_AXIS":"6925.338","DECAY_DATE":null,"OBJECT_NAME":"STARLINK-2591","PERIOD":"95.592","ARG_OF_PERICENTER":"69.4931","PERIAPSIS":"545.826","OBJECT_ID":"2021-038J","GP_ID":"194570095","RCS_SIZE":"LARGE","FILE":"3282614","TIME_SYSTEM":"UTC","REV_AT_EPOCH":"4021","REF_FRAME":"TEME","CENTER_NAME":"EARTH","BSTAR":"0.00004496700000","ELEMENT_SET_NO":"999","CLASSIFICATION_TYPE":"U","EPHEMERIS_TYPE":"0","TLE_LINE2":"2 48361  53.0501 276.9237 0001988  69.4931 290.6271 15.06403531 40214"},{"DECAY_DATE":null,"OBJECT_NAME":"STARLINK-2578","PERIAPSIS":"545.968","OBJECT_ID":"2021-038K","PERIOD":"95.592","ARG_OF_PERICENTER":"58.5620","GP_ID":"194571346","RCS_SIZE":"LARGE","CLASSIFICATION_TYPE":"U","ELEMENT_SET_NO":"999","EPHEMERIS_TYPE":"0","TLE_LINE2":"2 48362  53.0579 276.8048 0001770  58.5620 301.5542 15.06406368 40227","FILE":"3282614","TIME_SYSTEM":"UTC","CENTER_NAME":"EARTH","BSTAR":"0.00010430000000","REV_AT_EPOCH":"4022","REF_FRAME":"TEME","INCLINATION":"53.0579","MEAN_ANOMALY":"301.5542","ECCENTRICITY":"0.00017700","MEAN_MOTION":"15.06406368","EPOCH":"2022-01-24T21:59:07.329120","MEAN_MOTION_DDOT":"0.0000000000000","RA_OF_ASC_NODE":"276.8048","COUNTRY_CODE":"US","APOAPSIS":"548.420","NORAD_CAT_ID":"48362","MEAN_ELEMENT_THEORY":"SGP4","MEAN_MOTION_DOT":"0.00001273","LAUNCH_DATE":"2021-05-04","SEMIMAJOR_AXIS":"6925.329","TLE_LINE1":"1 48362U 21038K   22024.91605705  .00001273  00000-0  10430-3 0  9994","SITE":"AFETR","OBJECT_TYPE":"PAYLOAD"},{"ARG_OF_PERICENTER":"76.8663","PERIOD":"95.592","OBJECT_ID":"2021-038L","PERIAPSIS":"545.994","OBJECT_NAME":"STARLINK-2626","DECAY_DATE":null,"REV_AT_EPOCH":"4028","REF_FRAME":"TEME","CENTER_NAME":"EARTH","BSTAR":"0.00000016539000","TIME_SYSTEM":"UTC","FILE":"3282614","TLE_LINE2":"2 48363  53.0553 272.0208 0001770  76.8663 283.2523 15.06398068 40284","ELEMENT_SET_NO":"999","CLASSIFICATION_TYPE":"U","EPHEMERIS_TYPE":"0","RCS_SIZE":"LARGE","GP_ID":"194571090","APOAPSIS":"548.445","COUNTRY_CODE":"US","RA_OF_ASC_NODE":"272.0208","MEAN_MOTION_DDOT":"0.0000000000000","EPOCH":"2022-01-24T20:49:30.305568","MEAN_MOTION":"15.06398068","ECCENTRICITY":"0.00017700","MEAN_ANOMALY":"283.2523","INCLINATION":"53.0553","OBJECT_TYPE":"PAYLOAD","TLE_LINE1":"1 48363U 21038L   22024.86771187 -.00000279  00000-0  16539-6 0  9992","SITE":"AFETR","LAUNCH_DATE":"2021-05-04","SEMIMAJOR_AXIS":"6925.354","MEAN_MOTION_DOT":"-0.00000279","MEAN_ELEMENT_THEORY":"SGP4","NORAD_CAT_ID":"48363"},{"OBJECT_ID":"2021-038M","PERIAPSIS":"546.005","ARG_OF_PERICENTER":"64.9781","PERIOD":"95.593","OBJECT_NAME":"STARLINK-2611","DECAY_DATE":null,"TLE_LINE2":"2 48364  53.0560 272.0468 0001778  64.9781 295.1392 15.06392691 40280","EPHEMERIS_TYPE":"0","ELEMENT_SET_NO":"999","CLASSIFICATION_TYPE":"U","REV_AT_EPOCH":"4028","REF_FRAME":"TEME","CENTER_NAME":"EARTH","BSTAR":"0.00013240000000","TIME_SYSTEM":"UTC","FILE":"3282614","RCS_SIZE":"LARGE","GP_ID":"194570345","MEAN_MOTION_DDOT":"0.0000000000000","APOAPSIS":"548.467","COUNTRY_CODE":"US","RA_OF_ASC_NODE":"272.0468","ECCENTRICITY":"0.00017780","INCLINATION":"53.0560","MEAN_ANOMALY":"295.1392","EPOCH":"2022-01-24T20:42:50.991552","MEAN_MOTION":"15.06392691","SEMIMAJOR_AXIS":"6925.371","LAUNCH_DATE":"2021-05-04","MEAN_MOTION_DOT":"0.00001691","TLE_LINE1":"1 48364U 21038M   22024.86309018  .00001691  00000-0  13240-3 0  9994","OBJECT_TYPE":"PAYLOAD","SITE":"AFETR","NORAD_CAT_ID":"48364","MEAN_ELEMENT_THEORY":"SGP4"},{"TLE_LINE2":"2 48365  53.0552 271.8543 0001885  66.8688 293.2500 15.06402065 40297","ELEMENT_SET_NO":"999","CLASSIFICATION_TYPE":"U","EPHEMERIS_TYPE":"0","REV_AT_EPOCH":"4029","REF_FRAME":"TEME","CENTER_NAME":"EARTH","BSTAR":"-0.00000958530000","FILE":"3282614","TIME_SYSTEM":"UTC","RCS_SIZE":"LARGE","GP_ID":"194570595","OBJECT_ID":"2021-038N","PERIAPSIS":"545.902","ARG_OF_PERICENTER":"66.8688","PERIOD":"95.592","OBJECT_NAME":"STARLINK-2608","DECAY_DATE":null,"SEMIMAJOR_AXIS":"6925.342","LAUNCH_DATE":"2021-05-04","MEAN_MOTION_DOT":"-0.00000424","SITE":"AFETR","TLE_LINE1":"1 48365U 21038N   22024.90825944 -.00000424  00000-0 -95853-5 0  9998","OBJECT_TYPE":"PAYLOAD","NORAD_CAT_ID":"48365","MEAN_ELEMENT_THEORY":"SGP4","MEAN_MOTION_DDOT":"0.0000000000000","APOAPSIS":"548.513","COUNTRY_CODE":"US","RA_OF_ASC_NODE":"271.8543","ECCENTRICITY":"0.00018850","MEAN_ANOMALY":"293.2500","INCLINATION":"53.0552","EPOCH":"2022-01-24T21:47:53.615616","MEAN_MOTION":"15.06402065"},{"OBJECT_ID":"2021-038P","PERIAPSIS":"545.857","ARG_OF_PERICENTER":"68.3734","PERIOD":"95.592","OBJECT_NAME":"STARLINK-2631","DECAY_DATE":null,"TLE_LINE2":"2 48366  53.0551 266.8946 0001966  68.3734 291.7464 15.06398356 40353","CLASSIFICATION_TYPE":"U","ELEMENT_SET_NO":"999","EPHEMERIS_TYPE":"0","CENTER_NAME":"EARTH","BSTAR":"0.00002713000000","REV_AT_EPOCH":"4035","REF_FRAME":"TEME","TIME_SYSTEM":"UTC","FILE":"3282614","RCS_SIZE":"LARGE","GP_ID":"194570847","MEAN_MOTION_DDOT":"0.0000000000000","APOAPSIS":"548.580","RA_OF_ASC_NODE":"266.8946","COUNTRY_CODE":"US","ECCENTRICITY":"0.00019660","MEAN_ANOMALY":"291.7464","INCLINATION":"53.0551","EPOCH":"2022-01-24T21:29:58.577568","MEAN_MOTION":"15.06398356","LAUNCH_DATE":"2021-05-04","SEMIMAJOR_AXIS":"6925.354","MEAN_MOTION_DOT":"0.00000122","TLE_LINE1":"1 48366U 21038P   22024.89581687  .00000122  00000-0  27130-4 0  9995","SITE":"AFETR","OBJECT_TYPE":"PAYLOAD","NORAD_CAT_ID":"48366","MEAN_ELEMENT_THEORY":"SGP4"},{"GP_ID":"194571590","RCS_SIZE":"LARGE","TIME_SYSTEM":"UTC","FILE":"3282614","REF_FRAME":"TEME","REV_AT_EPOCH":"4035","CENTER_NAME":"EARTH","BSTAR":"0.00012873000000","EPHEMERIS_TYPE":"0","ELEMENT_SET_NO":"999","CLASSIFICATION_TYPE":"U","TLE_LINE2":"2 48367  53.0545 266.9265 0001668  62.8985 297.2174 15.06396874 40350","DECAY_DATE":null,"OBJECT_NAME":"STARLINK-2643","PERIOD":"95.592","ARG_OF_PERICENTER":"62.8985","PERIAPSIS":"546.068","OBJECT_ID":"2021-038Q","MEAN_ELEMENT_THEORY":"SGP4","NORAD_CAT_ID":"48367","OBJECT_TYPE":"PAYLOAD","TLE_LINE1":"1 48367U 21038Q   22024.89214650  .00001636  00000-0  12873-3 0  9997","SITE":"AFETR","MEAN_MOTION_DOT":"0.00001636","LAUNCH_DATE":"2021-05-04","SEMIMAJOR_AXIS":"6925.358","MEAN_MOTION":"15.06396874","EPOCH":"2022-01-24T21:24:41.457600","INCLINATION":"53.0545","MEAN_ANOMALY":"297.2174","ECCENTRICITY":"0.00016680","COUNTRY_CODE":"US","RA_OF_ASC_NODE":"266.9265","APOAPSIS":"548.378","MEAN_MOTION_DDOT":"0.0000000000000"},{"INCLINATION":"53.0547","MEAN_ANOMALY":"294.5110","ECCENTRICITY":"0.00016820","MEAN_MOTION":"15.06399828","EPOCH":"2022-01-24T21:49:50.677248","MEAN_MOTION_DDOT":"0.0000000000000","COUNTRY_CODE":"US","RA_OF_ASC_NODE":"266.8286","APOAPSIS":"548.379","NORAD_CAT_ID":"48368","MEAN_ELEMENT_THEORY":"SGP4","MEAN_MOTION_DOT":"0.00000360","SEMIMAJOR_AXIS":"6925.349","LAUNCH_DATE":"2021-05-04","TLE_LINE1":"1 48368U 21038R   22024.90961432  .00000360  00000-0  43087-4 0  9992","OBJECT_TYPE":"PAYLOAD","SITE":"AFETR","DECAY_DATE":null,"OBJECT_NAME":"STARLINK-2623","PERIAPSIS":"546.049","OBJECT_ID":"2021-038R","PERIOD":"95.592","ARG_OF_PERICENTER":"65.6054","GP_ID":"194569846","RCS_SIZE":"LARGE","CLASSIFICATION_TYPE":"U","ELEMENT_SET_NO":"999","EPHEMERIS_TYPE":"0","TLE_LINE2":"2 48368  53.0547 266.8286 0001682  65.6054 294.5110 15.06399828 40362","TIME_SYSTEM":"UTC","FILE":"3282614","REF_FRAME":"TEME","REV_AT_EPOCH":"4036","BSTAR":"0.00004308700000","CENTER_NAME":"EARTH"}];
